TDRS 3                  
1 19548U 88091B   26157.90802608 -.00000291  00000+0  00000+0 0  9998
2 19548  12.6101 341.0675 0038486 356.5232 195.6884  1.00277839125287
FLTSATCOM 8 (USA 46)    
1 20253U 89077A   26157.94262359 -.00000359  00000+0  00000+0 0  9990
2 20253  12.4245 351.2288 0004671  48.3597 320.5094  1.00282788260462
SKYNET 4C               
1 20776U 90079A   26157.67798765  .00000134  00000+0  00000+0 0  9999
2 20776  13.3437 349.8835 0002729  91.5360  91.1055  1.00272639130789
TDRS 5                  
1 21639U 91054B   26157.74199863  .00000091  00000+0  00000+0 0  9996
2 21639  14.0726 353.8546 0005980 277.0507  83.6892  1.00270936127618
TDRS 6                  
1 22314U 93003B   26157.95093398 -.00000288  00000+0  00000+0 0  9991
2 22314  14.1828 357.1378 0007326 179.0824  15.6389  1.00275123122302
UFO 2 (USA 95)          
1 22787U 93056A   26157.82228227  .00000133  00000+0  00000+0 0  9998
2 22787  11.8916   3.6153 0006456   4.9297 211.3237  1.00271776118442
USA 99 (MILSTAR-1 1)    
1 22988U 94009A   26157.68605372  .00000036  00000+0  00000+0 0  9996
2 22988  17.6107  27.8143 0000721 205.3690 332.5291  0.98720340 32848
UFO 4 (USA 108)         
1 23467U 95003A   26157.80939812 -.00000013  00000+0  00000+0 0  9993
2 23467   9.7071  13.2692 0003030  54.1184 291.3995  1.00270940114849
TDRS 7                  
1 23613U 95035B   26157.85965966 -.00000230  00000+0  00000+0 0  9996
2 23613  13.3815 348.2642 0011071  75.3338 230.2317  1.00267177113145
USA 115 (MILSTAR-1 2)   
1 23712U 95060A   26157.61323703 -.00000164  00000+0  00000+0 0  9991
2 23712  14.0690   3.8259 0001694 126.0454 248.1677  1.00366516 32789
INMARSAT 3-F1           
1 23839U 96020A   26157.18656015 -.00000176  00000+0  00000+0 0  9998
2 23839  10.5794  46.7370 0003559  34.2627 157.1838  0.99980712110141
INMARSAT 3-F2           
1 24307U 96053A   26157.60070178 -.00000165  00000+0  00000+0 0  9990
2 24307   9.8344  54.0456 0006701  20.5019 196.3084  1.00004508108818
INMARSAT 3-F3           
1 24674U 96070A   26157.79540867  .00000123  00000+0  00000+0 0  9996
2 24674  10.2969  49.7540 0003537  15.3014 169.9309  0.99977986107800
AMC-3                   
1 24936U 97050A   26156.46923512 -.00000232  00000+0  00000+0 0  9993
2 24936   8.1165  64.2198 0010464 111.2215 173.9176  1.00107765 52317
USA 134                 
1 25019U 97065A   26157.57692184 -.00000055  00000+0  00000+0 0  9996
2 25019  12.7713  21.8006 0003651 342.0436 346.6593  1.00271171 32847
INMARSAT 3-F5           
1 25153U 98006B   26157.21503198 -.00000280  00000+0  00000+0 0  9998
2 25153   9.6683  53.3677 0004857  18.1347 206.5892  1.00272756103780
ABS-6                   
1 25924U 99053A   26157.87801074  .00000000  00000+0  00000+0 0  9992
2 25924   0.0292  47.1512 0003144  45.2966 277.9226  1.00267857 97738
UFO 10 (USA 146)        
1 25967U 99063A   26153.99200895 -.00000181  00000+0  00000+0 0  9994
2 25967   9.8534  27.2872 0001940  17.6670 180.6760  1.00273735 97203
ASIASTAR                
1 26107U 00016A   26157.15413917 -.00000322  00000+0  00000+0 0  9991
2 26107   9.1040  58.2729 0004940  20.9172 335.8599  1.00268520 95801
USA 149 (DSP 20)        
1 26356U 00024A   26157.30645690  .00000102  00000+0  00000+0 0  9993
2 26356  13.1622  11.9284 0001574 318.2644 229.4582  1.00271133 32802
TDRS 8                  
1 26388U 00034A   26157.68073014 -.00000185  00000+0  00000+0 0  9997
2 26388  12.6678  31.4132 0004938  10.6842 182.8152  1.00269147 95076
NSS-11                  
1 26554U 00059A   26157.88139075  .00000039  00000+0  00000+0 0  9998
2 26554   2.0991  81.5120 0003146 356.4714 310.6044  1.00272336 41182
USA 153                 
1 26575U 00065A   26157.51671339 -.00000314  00000+0  00000+0 0  9999
2 26575  11.6064  35.5098 0003186  44.5936 135.3597  1.00272415 32824
AMC-6                   
1 26580U 00067A   26157.74849867  .00000102  00000+0  00000+0 0  9999
2 26580   0.1248  82.9228 0003733   1.2084 305.4550  1.00270928 93788
USA 157 (MILSTAR-2 2)   
1 26715U 01009A   26157.74555199  .00000119  00000+0  00000+0 0  9996
2 26715  11.5308  19.8272 0038998 176.9592 176.7003  1.00270935 32833
USA 159 (DSP 21)        
1 26880U 01033A   26157.48018988 -.00000233  00000+0  00000+0 0  9995
2 26880  12.7717  16.5141 0001495 119.1777 242.4182  0.99200808 32858
INTELSAT 902 (IS-902)   
1 26900U 01039A   26157.55116331 -.00000270  00000+0  00000+0 0  9994
2 26900   6.0917  71.9112 0004299   0.7285 330.6336  1.00270875 90585
USA 164 (MILSTAR-2 3)   
1 27168U 02001A   26157.85016345  .00000107  00000+0  00000+0 0  9996
2 27168  11.1669  21.9681 0099345   8.2535 190.0290  1.00274186 32858
INTELSAT 904 (IS-904)   
1 27380U 02007A   26157.62641043 -.00000213  00000+0  00000+0 0  9991
2 27380   6.8931  69.3106 0007136   0.5431  19.1983  1.00270083 51664
DIRECTV 5 (TEMPO 1)     
1 27426U 02023A   26157.89597936 -.00000044  00000+0  00000+0 0  9992
2 27426   4.8508  75.4379 0003438   9.0468  23.2740  1.00271734 88029
INTELSAT 905 (IS-905)   
1 27438U 02027A   26157.62664821  .00000106  00000+0  00000+0 0  9996
2 27438   6.7264  69.9270 0004148  14.1476 259.3517  1.00272837 51259
